     2              NAVIGATION DATA                         RINEX VERSION / TYPE
CCRINEXN V1.6.0 UX  CDDIS               06-APR-16 23:39     PGM / RUN BY / DATE 
IGS BROADCAST EPHEMERIS FILE                                COMMENT             
    0.1118D-07  0.1490D-07 -0.5960D-07 -0.5960D-07          ION ALPHA           
    0.8806D+05  0.1638D+05 -0.1966D+06 -0.1311D+06          ION BETA            
   -0.931322574615D-09-0.266453525910D-14   503808     1891 DELTA-UTC: A0,A1,T,W
    17                                                      LEAP SECONDS        
                                                            END OF HEADER       
24 16  4  6 22  0  0.0-0.151037238538D-04-0.568434188608D-12 0.000000000000D+00
    0.580000000000D+02-0.520937500000D+02 0.545879880945D-08-0.628536729923D+00
   -0.265240669251D-05 0.439178675879D-02 0.204332172871D-05 0.515361881828D+04
    0.338400000000D+06 0.108033418655D-06 0.183023048961D+01 0.596046447754D-07
    0.949647400466D+00 0.334250000000D+03 0.407133918213D+00-0.886929801329D-08
   -0.205722854897D-09 0.000000000000D+00 0.189100000000D+04 0.000000000000D+00
    0.200000000000D+01 0.000000000000D+00 0.232830643654D-08 0.580000000000D+02
    0.331200000000D+06 0.400000000000D+01 0.000000000000D+00 0.000000000000D+00
25 16  4  6 22  0  0.0-0.148226041347D-03-0.704858393874D-11 0.000000000000D+00
    0.440000000000D+02-0.755937500000D+02 0.394980738247D-08-0.257450920911D+01
   -0.391714274883D-05 0.549061957281D-02 0.134948641062D-04 0.515377766228D+04
    0.338400000000D+06 0.484287738800D-07 0.290124829458D+01-0.119209289551D-06
    0.978878069012D+00 0.127687500000D+03 0.735883086770D+00-0.765817613663D-08
   -0.186436337250D-09 0.000000000000D+00 0.189100000000D+04 0.000000000000D+00
    0.200000000000D+01 0.000000000000D+00 0.558793544769D-08 0.440000000000D+02
    0.331200000000D+06 0.400000000000D+01 0.000000000000D+00 0.000000000000D+00
26 16  4  6 22  0  0.0-0.320998020470D-03-0.138697942020D-10 0.000000000000D+00
    0.280000000000D+02-0.603125000000D+02 0.432803748396D-08 0.297367806942D+01
   -0.313855707645D-05 0.996401999146D-03 0.131670385599D-04 0.515374484825D+04
    0.338400000000D+06-0.372529029846D-08 0.289316837274D+01 0.130385160446D-07
    0.960859375787D+00 0.127687500000D+03 0.706859165122D-01-0.785497000777D-08
   -0.220723481159D-09 0.100000000000D+01 0.189100000000D+04 0.000000000000D+00
    0.200000000000D+01 0.000000000000D+00 0.698491930962D-08 0.280000000000D+02
    0.331230000000D+06 0.000000000000D+00 0.000000000000D+00 0.000000000000D+00
27 16  4  6 22  0  0.0 0.795638188720D-04 0.386535248253D-11 0.000000000000D+00
    0.400000000000D+02 0.935937500000D+02 0.455983295566D-08 0.131829973552D+01
    0.510737299919D-05 0.349553721026D-02 0.803917646408D-05 0.515363593483D+04
    0.338400000000D+06 0.298023223877D-07-0.234090542363D+01 0.912696123123D-07
    0.970765469970D+00 0.227875000000D+03 0.228995652051D+00-0.820212697761D-08
    0.465019356355D-09 0.100000000000D+01 0.189100000000D+04 0.000000000000D+00
    0.200000000000D+01 0.000000000000D+00 0.139698386192D-08 0.400000000000D+02
    0.331230000000D+06 0.000000000000D+00 0.000000000000D+00 0.000000000000D+00
28 16  4  6 22  0  0.0 0.514374580234D-03 0.261479726760D-11 0.000000000000D+00
    0.610000000000D+02-0.619687500000D+02 0.358836375547D-08 0.204753295407D+01
   -0.327453017235D-05 0.197708199266D-01 0.152010470629D-04 0.515363247299D+04
    0.338400000000D+06 0.286847352982D-06 0.297528665757D+01-0.266358256340D-06
    0.989857399397D+00 0.955937500000D+02-0.161828632104D+01-0.725851663207D-08
   -0.217151902391D-09 0.100000000000D+01 0.189100000000D+04 0.000000000000D+00
    0.200000000000D+01 0.000000000000D+00-0.111758708954D-07 0.610000000000D+02
    0.332148000000D+06 0.400000000000D+01 0.000000000000D+00 0.000000000000D+00
29 16  4  6 22  0  0.0 0.656708143651D-03 0.341060513165D-12 0.000000000000D+00
    0.530000000000D+02 0.852187500000D+02 0.432446584565D-08-0.255058513399D+01
    0.427290797234D-05 0.106452545151D-02 0.819936394691D-05 0.515358888817D+04
    0.338400000000D+06-0.726431608200D-07-0.228163123366D+01-0.167638063431D-07
    0.976727297092D+00 0.227218750000D+03-0.412714298224D+00-0.802104839458D-08
    0.499306512406D-09 0.000000000000D+00 0.189100000000D+04 0.000000000000D+00
    0.200000000000D+01 0.000000000000D+00-0.102445483208D-07 0.530000000000D+02
    0.331200000000D+06 0.400000000000D+01 0.000000000000D+00 0.000000000000D+00
30 16  4  6 22  0  0.0 0.114205293357D-03 0.363797880709D-11 0.000000000000D+00
    0.650000000000D+02-0.752187500000D+02 0.531522159619D-08-0.140810346048D+01
   -0.411644577980D-05 0.187578052282D-02 0.336766242981D-05 0.515361215782D+04
    0.338400000000D+06 0.428408384323D-07 0.192144473824D+01 0.167638063431D-07
    0.952364390440D+00 0.310281250000D+03 0.297496544318D+01-0.876393624338D-08
   -0.321084797639D-09 0.100000000000D+01 0.189100000000D+04 0.000000000000D+00
    0.200000000000D+01 0.000000000000D+00 0.325962901115D-08 0.650000000000D+02
    0.337110000000D+06 0.000000000000D+00 0.000000000000D+00 0.000000000000D+00
31 16  4  6 22  0  0.0 0.274957623333D-03-0.181898940355D-11 0.000000000000D+00
    0.280000000000D+02-0.652812500000D+02 0.488627494022D-08-0.164460879622D+01
   -0.358745455742D-05 0.823068490718D-02 0.344775617123D-05 0.515372114563D+04
    0.338400000000D+06-0.856816768646D-07 0.188569069269D+01-0.236555933952D-06
    0.971390004327D+00 0.322062500000D+03-0.405264455200D+00-0.857857163083D-08
   -0.219652004918D-09 0.100000000000D+01 0.189100000000D+04 0.000000000000D+00
    0.200000000000D+01 0.000000000000D+00-0.135041773319D-07 0.280000000000D+02
    0.331230000000D+06 0.000000000000D+00 0.000000000000D+00 0.000000000000D+00
32 16  4  6 22  0  0.0 0.742357224226D-05-0.238742359215D-11 0.000000000000D+00
    0.510000000000D+02 0.109906250000D+03 0.459269130403D-08 0.164872915765D+01
    0.578165054321D-05 0.148900435306D-03 0.734068453312D-05 0.515359227562D+04
    0.338400000000D+06-0.670552253723D-07 0.799221821997D+00 0.484287738800D-07
    0.960125896457D+00 0.232062500000D+03-0.240832681943D+01-0.831606068302D-08
    0.663599070136D-09 0.000000000000D+00 0.189100000000D+04 0.000000000000D+00
    0.200000000000D+01 0.000000000000D+00 0.465661287308D-09 0.510000000000D+02
    0.331200000000D+06 0.400000000000D+01 0.000000000000D+00 0.000000000000D+00
 3 16  4  6 23 59 44.0-0.446867197752D-04-0.420641299570D-11 0.000000000000D+00
    0.300000000000D+01-0.259687500000D+02 0.415445855495D-08 0.215950054917D+01
   -0.146403908730D-05 0.243191374466D-03 0.137928873301D-04 0.515374056053D+04
    0.345584000000D+06 0.707805156708D-07-0.241474147236D+00-0.372529029846D-08
    0.959733945594D+00 0.115500000000D+03-0.259393510957D+01-0.784497000694D-08
   -0.418946016767D-09 0.100000000000D+01 0.189100000000D+04 0.000000000000D+00
    0.200000000000D+01 0.000000000000D+00 0.186264514923D-08 0.300000000000D+01
    0.338430000000D+06 0.000000000000D+00 0.000000000000D+00 0.000000000000D+00
 7 16  4  6 23 59 44.0 0.461449380964D-03-0.193267624127D-11 0.000000000000D+00
    0.120000000000D+02-0.660625000000D+02 0.496627849955D-08-0.507668733915D+00
   -0.328756868839D-05 0.921871198807D-02 0.308826565743D-05 0.515365291596D+04
    0.345584000000D+06 0.800937414169D-07 0.187649812656D+01 0.106170773506D-06
    0.966557375874D+00 0.320468750000D+03-0.268184974208D+01-0.864428884029D-08
   -0.233938313165D-09 0.100000000000D+01 0.189100000000D+04 0.000000000000D+00
    0.200000000000D+01 0.000000000000D+00-0.111758708954D-07 0.120000000000D+02
    0.339480000000D+06 0.000000000000D+00 0.000000000000D+00 0.000000000000D+00
14 16  4  6 23 59 44.0-0.690342858434D-05-0.216004991671D-11 0.000000000000D+00
    0.100000000000D+01 0.110625000000D+03 0.445125684129D-08 0.225043082638D+01
    0.581145286560D-05 0.843863119371D-02 0.751391053200D-05 0.515399671936D+04
    0.345584000000D+06 0.298023223877D-07 0.881250052516D+00-0.199303030968D-06
    0.964374501680D+00 0.233937500000D+03-0.196648658442D+01-0.810248035797D-08
    0.692528846606D-09 0.000000000000D+00 0.189100000000D+04 0.000000000000D+00
    0.200000000000D+01 0.000000000000D+00-0.931322574616D-08 0.100000000000D+01
    0.340710000000D+06 0.400000000000D+01 0.000000000000D+00 0.000000000000D+00
21 16  4  6 23 59 44.0-0.518041662872D-03-0.147792889038D-11 0.000000000000D+00
    0.200000000000D+01-0.340937500000D+02 0.559487590618D-08-0.152939946828D+01
   -0.144354999065D-05 0.233603586676D-01 0.256486237049D-05 0.515363013649D+04
    0.345584000000D+06 0.407919287682D-06-0.131493580659D+01 0.482425093651D-06
    0.935608420806D+00 0.312000000000D+03-0.180631411091D+01-0.876536511264D-08
   -0.399659504565D-09 0.000000000000D+00 0.189100000000D+04 0.000000000000D+00
    0.200000000000D+01 0.000000000000D+00-0.102445483208D-07 0.200000000000D+01
    0.339060000000D+06 0.400000000000D+01 0.000000000000D+00 0.000000000000D+00
